#dP2022 12  7  6  0  0.00000000      96 __u+U ITR00 EXT  IAC
## 2239 280800.00000000   900.00000000 59920 0.2500000000000
+  117   C06C07C08C09C11C12C13C14C16C19C20C21C22C23C24C25C26
+        C27C28C29C30C32C33C34C35C36C37C38C39C40C41C42C43C44
+        C45C46E01E02E03E04E05E07E08E09E10E11E12E13E14E15E18
+        E19E21E24E25E26E27E30E31E33E34E36G01G02G03G04G05G06
+        G07G08G09G10G11G12G13G14G15G16G17G18G19G20G21G22G23
+        G24G25G26G27G29G30G31G32J02J03J04R01R02R03R04R05R07
+        R08R09R11R12R13R14R15R17R18R19R20R21R22R24R25  0  0
++         9 11 10 10  7  9 10  9  9  8  9  8  9  8  8  8  9
++         9  9  7  9  8  7  8  8  9  7  9  9 11  8  7  7  9
++         8  8  8  9  8  8  7  8  8  8  8 10  8  9  9  8  8
++         8  7  8  9  9  8  7  8  8  7  8  7  9  8  8  7  7
++         8  8  8  9  7  8  8  8  7  8  8  7  9  8  8  8  8
++         7  8  8  8  9  8  8  8 10  9 11  9  8  9  8  8  8
++         9  9  8  8  8  8  8  7  9  9  9  9  8  9  8  0  0
%c M  cc GPS ccc cccc cccc cccc cccc ccccc ccccc ccccc ccccc
%c cc cc ccc ccc cccc cccc cccc cccc ccccc ccccc ccccc ccccc
%f  0.0000000  0.000000000  0.00000000000  0.000000000000000
%f  0.0000000  0.000000000  0.00000000000  0.000000000000000
%i    0    0    0    0      0      0      0      0         0
%i    0    0    0    0      0      0      0      0         0
/* IAC                                ULTRA-RAPID PREDICTION
/* S/V CLOCKS ARE ALIGNED TO GNSS TIME                      
/* G:C1WC2W R:C1PC2P E:C1XC5X C:C2IC6I J:C1CC2S             
/* PCV:IGS14_2233 OL/AL:FES2004  NONE     YN ORB:CoN CLK:CoN
*  2022 12 07  9 30  0.00000000
PC06 -16520.869654  34142.948252  18177.210369    222.324985
PC07  -2774.863337  37580.761188  19120.409027    109.733673
PC08  -7345.134228  19478.175890 -36671.227130    520.455522
PC09 -10369.774273  32632.083910  24625.492791   -788.746752
PC11  18961.196562  -2069.114059 -20284.024829   -249.828086
PC12   7103.666981  14899.914184 -22456.478546    334.715335
PC13   1042.932369  22558.377434 -35419.207760    152.077481
PC14  18047.063638   7874.974728  19806.089728    243.148033
PC16 -20996.847802  33841.520433  13603.380205    105.628385
PC19 -15710.425802   2905.589239 -22860.065068   -906.030008
PC20 -17581.005756 -15735.832729 -14878.348133    813.883302
PC21   8937.853978  26305.125411  -2699.452596   -929.331714
PC22  -4716.130459  20783.411487 -18031.079622   -753.229932
PC23  13540.340301 -13130.101986 -20564.705207   -872.616799
PC24  23712.690126  10562.215865  10183.877039   -707.301256
PC25  26376.972844  -3258.877151  -8479.021156     35.844267
PC26   8840.194020  16111.403554  20974.010498    -46.428847
PC27     87.856891 -20882.767221  18501.317756     62.568173
PC28  14548.234402 -23408.559439   4370.765610     44.461831
PC29 -20851.746806  12519.894924  13680.901210     50.468076
PC30 -14702.353898  -6719.298201  22743.315047      1.150208
PC32  -9058.188272 -26243.363112   2821.075301   -691.190758
PC33  15775.295513  -2874.918768  22838.451386   -897.981428
PC34  15484.574215   5538.572258 -22553.485219     55.721355
PC35 -14730.993116  23517.070881  -2788.817109    122.050574
PC36 -26685.167556   2205.105446   7902.625551   -785.591138
PC37  -7013.690893 -16439.716713 -21429.546142   -891.010269
PC38 -15749.958147  19267.185272 -34050.758108     43.270194
PC39 -22341.082498  34513.799765   8907.729276     -1.027533
PC40  -7262.974489  34256.474305  23639.382104     -9.683312
PC41   5127.728636 -20385.172378  18403.042471   -354.271876
PC42  17441.202896  16771.919516  13951.822215   -804.656270
PC43  20951.736144 -11736.623661 -14234.865683     28.847856
PC44    625.469704  21024.804159 -18330.680188    137.368844
PC45 -13178.035357  13160.819581  20786.194635    -31.671992
PC46 -24789.331334  -9545.262834  -8631.485506    -17.964925
PE01  12415.370133 -11353.249753 -24352.253232   -577.513984
PE02 -12196.121086  11546.563168  24373.872224      7.095175
PE03 -12522.413508  23565.680291 -12823.837796   -627.376296
PE04    560.887906 -29151.694919  -5118.443222     -8.857395
PE05 -17387.470350   3975.648386 -23626.592520   -117.443834
PE07  12041.639956  17639.130405  20493.756792     -5.228767
PE08   -552.779387  29155.877761   5091.715226      1.315152
PE09 -11867.795424 -17775.762142 -20478.757752   -755.382576
PE10  -7684.714216 -14145.488881  24839.488921   -496.072276
PE11 -18260.024376  -7954.956144  21890.886409    975.382636
PE12   3128.342166 -17697.279108  23526.763000   -318.479277
PE13  17449.514975   8464.738631 -22351.666405    430.441922
PE14   8692.527587  25374.761406 -18346.385423     77.686535
PE15  -3455.265726  17697.729036 -23462.308821    702.557358
PE18  -7574.307653 -16801.457092  14507.163594   -656.712407
PE19  13700.651297 -21549.591119  14974.778345  -3806.217624
PE21  23992.649104   4403.480714 -16760.568752   -498.932705
PE24 -22273.736735 -19431.134323  -1873.536363   -988.318817
PE25 -24107.067195  -4687.398471  16538.840972   -594.380620
PE26  28019.234263  -6121.993008  -7296.583557  -1888.566280
PE27  22769.711313  18875.365717    961.972969   -457.339661
PE30   7330.246738  21993.304216  18385.099780  -1058.354318
PE31  -8174.911560 -22092.148573 -17924.199495   -510.039580
PE33  22166.314116 -16428.023307  10735.027791   -455.612003
PE34 -22030.938732  16521.576022 -10873.137902    -18.379223
PE36 -27893.168189   5613.704482   8168.338091   -471.771916
PG01    931.211214  14958.857319 -22206.838115    241.120656
PG02  -4539.040924 -14737.813449  22267.210090   -634.275338
PG03   8705.344773  20904.686345 -14092.162804   -375.150236
PG04    517.544829  24712.501773   9579.600630    -73.078295
PG05   4242.151741 -15458.466955  20983.506604   -107.138311
PG06  25778.630026  -5724.190027  -3160.882600    535.050924
PG07  16667.804148   9156.717371  19155.676117    277.800260
PG08  -6109.482715  25588.579781   1516.582699    -97.458653
PG09   9353.738496  17297.083637  17752.778883   -257.320545
PG10 -21949.431795  -8903.167614 -12171.846784    -15.049261
PG11  21852.768670 -12082.227153   9006.959700    -52.436508
PG12  -6286.135696 -21414.372030 -14751.331923   -313.042173
PG13  13230.649339 -21750.013142   7046.477373    437.721828
PG14  21856.476083  11004.857422 -10464.721342    -72.092515
PG15   2764.158016 -26232.428268    757.126284     -6.160458
PG16  -9925.186760  11229.976268  21621.772410   -526.442833
PG17  14180.066718   3772.355647 -21698.827538    683.970008
PG18 -18367.440125  -7260.306226  17829.996369    -49.777820
PG19  16522.165592  -8101.963115 -19284.259320    247.264941
PG20  15407.533016  -7400.847163  20296.106100    465.181612
PG21  -7840.953423  16839.758265 -18070.154517    154.414757
PG22 -16108.749694  11705.435927 -17066.563275    379.723133
PG23 -20980.619856 -16279.366206  -2085.905510     -0.288108
PG24   2567.847658 -17254.574730 -20263.019041     26.762487
PG25 -15764.580530 -20575.917439  -6731.692714    399.746294
PG26 -18771.515798   2489.628021  18651.229633    237.817024
PG27 -12574.964249  19882.330145  11698.750246    159.611249
PG29  -6008.781750 -19479.360048  16939.633495   -572.348082
PG30  24538.596791    731.824955  10545.767435   -535.785348
PG31 -26031.535629   6215.483347  -1794.614780   -202.514767
PG32 -15391.195109   -143.065420 -21476.388969   -321.247256
PJ02 -26386.981693  21540.001201  29904.011273     -0.266459
PJ03 -34344.669420  24287.191767   2135.443296     -6.140676
PJ04 -20701.484667  25538.254213 -21277.762037    114.566956
PR01  10530.686096  20136.572877  11591.194000     19.129864
PR02  11410.023312   2592.400882  22695.439944    -23.412723
PR03   5999.430910 -15642.690354  19299.030473     68.630165
PR04  -2583.242114 -24820.540283   5355.403559    167.665435
PR05  -9696.932706 -20587.249587 -11549.965800    104.143301
PR07  -5650.148060  16220.358375 -18801.872458     45.643937
PR08   2800.923800  24810.374859  -5080.401902    -68.457911
PR09 -24233.938759  -3601.299063   6979.993026     91.664461
PR11   2783.671462  11940.286417  22378.143310     16.470098
PR12  19941.900587  11717.955393  10754.707849     23.445032
PR13  24471.256159   4747.896513  -5415.141794    -29.691976
PR14  14321.176933  -5829.262158 -20282.921313     24.068365
PR15  -3755.060423 -12289.547486 -22018.581922     92.494801
PR17  18713.364070 -17275.044302    977.560504    584.757795
PR18   8824.319498 -17504.962760  16370.825741     55.611751
PR19  -4406.852472  -9715.918261  23175.833533   -213.665823
PR20 -18687.377368   6057.560940  16263.394790    -83.500809
PR21 -18255.852112  17643.850497  -2618.381089   -355.565348
PR22  -8635.768128  17158.824365 -16745.364035     19.538960
PR24  18954.112407  -6907.353666 -15575.426676    131.184908
PR25 -19700.272578  16214.776017   -510.392213     48.255287
EOF
